start=new Date('2021-11-05T00:00:00.000Z').valueOf();
sats=[{"OBJECT_ID":"2021-027AD","ECCENTRICITY":"0.00012950","DECAY_DATE":null,"MEAN_ELEMENT_THEORY":"SGP4","FILE":"3202404","OBJECT_TYPE":"PAYLOAD","GP_ID":"188954988","TLE_LINE1":"1 48119U 21027AD  21308.84199559  .00007681  00000-0  53388-3 0  9991","EPHEMERIS_TYPE":"0","CENTER_NAME":"EARTH","REV_AT_EPOCH":"3366","CLASSIFICATION_TYPE":"U","BSTAR":"0.00053388000000","RA_OF_ASC_NODE":"70.7504","TIME_SYSTEM":"UTC","REF_FRAME":"TEME","MEAN_MOTION_DOT":"0.00007681","NORAD_CAT_ID":"48119","MEAN_ANOMALY":"277.7735","COUNTRY_CODE":"US","PERIOD":"95.592","INCLINATION":"53.0549","PERIAPSIS":"546.291","SITE":"AFETR","RCS_SIZE":"LARGE","ELEMENT_SET_NO":"999","MEAN_MOTION_DDOT":"0.0000000000000","OBJECT_NAME":"STARLINK-2459","SEMIMAJOR_AXIS":"6925.323","TLE_LINE2":"2 48119  53.0549  70.7504 0001295  82.3401 277.7735 15.06408497 33669","ARG_OF_PERICENTER":"82.3401","EPOCH":"2021-11-04T20:12:28.418976","APOAPSIS":"548.084","LAUNCH_DATE":"2021-04-07","MEAN_MOTION":"15.06408497"},{"LAUNCH_DATE":"2021-04-07","MEAN_MOTION":"15.06396946","APOAPSIS":"548.251","RCS_SIZE":"LARGE","MEAN_MOTION_DDOT":"0.0000000000000","ELEMENT_SET_NO":"999","OBJECT_NAME":"STARLINK-2460","SEMIMAJOR_AXIS":"6925.358","TLE_LINE2":"2 48120  53.0560  92.5208 0001485  85.0038 275.1121 15.06396946 33345","ARG_OF_PERICENTER":"85.0038","EPOCH":"2021-11-04T10:47:11.969376","PERIAPSIS":"546.195","SITE":"AFETR","INCLINATION":"53.0560","PERIOD":"95.592","COUNTRY_CODE":"US","MEAN_MOTION_DOT":"0.00001480","NORAD_CAT_ID":"48120","MEAN_ANOMALY":"275.1121","TIME_SYSTEM":"UTC","REF_FRAME":"TEME","CLASSIFICATION_TYPE":"U","BSTAR":"0.00011825000000","RA_OF_ASC_NODE":"92.5208","EPHEMERIS_TYPE":"0","REV_AT_EPOCH":"3334","CENTER_NAME":"EARTH","TLE_LINE1":"1 48120U 21027AE  21308.44944409  .00001480  00000-0  11825-3 0  9992","OBJECT_TYPE":"PAYLOAD","GP_ID":"188895035","FILE":"3200778","OBJECT_ID":"2021-027AE","ECCENTRICITY":"0.00014850","DECAY_DATE":null,"MEAN_ELEMENT_THEORY":"SGP4"},{"APOAPSIS":"548.320","MEAN_MOTION":"15.06397515","LAUNCH_DATE":"2021-04-07","PERIAPSIS":"546.122","SITE":"AFETR","SEMIMAJOR_AXIS":"6925.356","TLE_LINE2":"2 48121  53.0561  81.4581 0001587  83.4026 276.7143 15.06397515 33502","ARG_OF_PERICENTER":"83.4026","EPOCH":"2021-11-04T16:28:13.508544","RCS_SIZE":"LARGE","ELEMENT_SET_NO":"999","MEAN_MOTION_DDOT":"0.0000000000000","OBJECT_NAME":"STARLINK-2462","PERIOD":"95.592","INCLINATION":"53.0561","NORAD_CAT_ID":"48121","MEAN_ANOMALY":"276.7143","MEAN_MOTION_DOT":"0.00001614","COUNTRY_CODE":"US","BSTAR":"0.00012725000000","RA_OF_ASC_NODE":"81.4581","CLASSIFICATION_TYPE":"U","TIME_SYSTEM":"UTC","REF_FRAME":"TEME","TLE_LINE1":"1 48121U 21027AF  21308.68626746  .00001614  00000-0  12725-3 0  9999","CENTER_NAME":"EARTH","REV_AT_EPOCH":"3350","EPHEMERIS_TYPE":"0","FILE":"3202404","OBJECT_TYPE":"PAYLOAD","GP_ID":"188953986","ECCENTRICITY":"0.00015870","DECAY_DATE":null,"MEAN_ELEMENT_THEORY":"SGP4","OBJECT_ID":"2021-027AF"},{"TLE_LINE1":"1 48122U 21027AG  21308.82032278  .00004681  00000-0  33289-3 0  9992","CENTER_NAME":"EARTH","REV_AT_EPOCH":"3360","EPHEMERIS_TYPE":"0","BSTAR":"0.00033289000000","RA_OF_ASC_NODE":"75.8533","CLASSIFICATION_TYPE":"U","REF_FRAME":"TEME","TIME_SYSTEM":"UTC","ECCENTRICITY":"0.00013180","MEAN_ELEMENT_THEORY":"SGP4","DECAY_DATE":null,"OBJECT_ID":"2021-027AG","FILE":"3202404","OBJECT_TYPE":"PAYLOAD","GP_ID":"188954737","PERIAPSIS":"546.292","SITE":"AFETR","TLE_LINE2":"2 48122  53.0549  75.8533 0001318  85.7190 274.3950 15.06402771 33604","SEMIMAJOR_AXIS":"6925.340","EPOCH":"2021-11-04T19:41:15.888192","ARG_OF_PERICENTER":"85.7190","RCS_SIZE":"LARGE","MEAN_MOTION_DDOT":"0.0000000000000","ELEMENT_SET_NO":"999","OBJECT_NAME":"STARLINK-2463","APOAPSIS":"548.118","MEAN_MOTION":"15.06402771","LAUNCH_DATE":"2021-04-07","NORAD_CAT_ID":"48122","MEAN_ANOMALY":"274.3950","MEAN_MOTION_DOT":"0.00004681","COUNTRY_CODE":"US","PERIOD":"95.592","INCLINATION":"53.0549"},{"COUNTRY_CODE":"US","NORAD_CAT_ID":"48123","MEAN_ANOMALY":"290.2388","MEAN_MOTION_DOT":"0.00004059","INCLINATION":"53.0549","PERIOD":"95.591","SEMIMAJOR_AXIS":"6925.302","TLE_LINE2":"2 48123  53.0549  70.8183 0001236  69.8734 290.2388 15.06415169 33671","ARG_OF_PERICENTER":"69.8734","EPOCH":"2021-11-04T19:51:14.801760","RCS_SIZE":"LARGE","ELEMENT_SET_NO":"999","MEAN_MOTION_DDOT":"0.0000000000000","OBJECT_NAME":"STARLINK-2464","PERIAPSIS":"546.311","SITE":"AFETR","MEAN_MOTION":"15.06415169","LAUNCH_DATE":"2021-04-07","APOAPSIS":"548.023","ECCENTRICITY":"0.00012360","DECAY_DATE":null,"MEAN_ELEMENT_THEORY":"SGP4","OBJECT_ID":"2021-027AH","OBJECT_TYPE":"PAYLOAD","GP_ID":"188955482","FILE":"3202404","CENTER_NAME":"EARTH","REV_AT_EPOCH":"3367","EPHEMERIS_TYPE":"0","TLE_LINE1":"1 48123U 21027AH  21308.82725465  .00004059  00000-0  29109-3 0  9995","TIME_SYSTEM":"UTC","REF_FRAME":"TEME","BSTAR":"0.00029109000000","RA_OF_ASC_NODE":"70.8183","CLASSIFICATION_TYPE":"U"},{"TLE_LINE2":"2 48124  53.0557  81.1333 0001397  88.4811 271.6338 15.06411478 33514","SEMIMAJOR_AXIS":"6925.313","ARG_OF_PERICENTER":"88.4811","EPOCH":"2021-11-04T18:14:22.930368","RCS_SIZE":"LARGE","MEAN_MOTION_DDOT":"0.0000000000000","OBJECT_NAME":"STARLINK-2465","ELEMENT_SET_NO":"999","PERIAPSIS":"546.211","SITE":"AFETR","MEAN_MOTION":"15.06411478","LAUNCH_DATE":"2021-04-07","APOAPSIS":"548.146","COUNTRY_CODE":"US","NORAD_CAT_ID":"48124","MEAN_ANOMALY":"271.6338","MEAN_MOTION_DOT":"0.00005499","INCLINATION":"53.0557","PERIOD":"95.591","CENTER_NAME":"EARTH","REV_AT_EPOCH":"3351","EPHEMERIS_TYPE":"0","TLE_LINE1":"1 48124U 21027AJ  21308.75998762  .00005499  00000-0  38766-3 0  9998","REF_FRAME":"TEME","TIME_SYSTEM":"UTC","BSTAR":"0.00038766000000","RA_OF_ASC_NODE":"81.1333","CLASSIFICATION_TYPE":"U","ECCENTRICITY":"0.00013970","DECAY_DATE":null,"MEAN_ELEMENT_THEORY":"SGP4","OBJECT_ID":"2021-027AJ","OBJECT_TYPE":"PAYLOAD","GP_ID":"188954230","FILE":"3202404"},{"BSTAR":"0.00046502000000","RA_OF_ASC_NODE":"91.4658","CLASSIFICATION_TYPE":"U","REF_FRAME":"TEME","TIME_SYSTEM":"UTC","TLE_LINE1":"1 48125U 21027AK  21308.68440664  .00006655  00000-0  46502-3 0  9996","CENTER_NAME":"EARTH","REV_AT_EPOCH":"3337","EPHEMERIS_TYPE":"0","FILE":"3202404","OBJECT_TYPE":"PAYLOAD","GP_ID":"188954480","ECCENTRICITY":"0.00015050","DECAY_DATE":null,"MEAN_ELEMENT_THEORY":"SGP4","OBJECT_ID":"2021-027AK","APOAPSIS":"548.197","MEAN_MOTION":"15.06419067","LAUNCH_DATE":"2021-04-07","PERIAPSIS":"546.113","SITE":"AFETR","TLE_LINE2":"2 48125  53.0551  91.4658 0001505  88.6006 271.5155 15.06419067 33374","SEMIMAJOR_AXIS":"6925.290","EPOCH":"2021-11-04T16:25:32.733696","ARG_OF_PERICENTER":"88.6006","RCS_SIZE":"LARGE","MEAN_MOTION_DDOT":"0.0000000000000","ELEMENT_SET_NO":"999","OBJECT_NAME":"STARLINK-2466","PERIOD":"95.591","INCLINATION":"53.0551","NORAD_CAT_ID":"48125","MEAN_ANOMALY":"271.5155","MEAN_MOTION_DOT":"0.00006655","COUNTRY_CODE":"US"},{"OBJECT_ID":"2021-027AL","ECCENTRICITY":"0.00013530","DECAY_DATE":null,"MEAN_ELEMENT_THEORY":"SGP4","OBJECT_TYPE":"PAYLOAD","GP_ID":"188955231","FILE":"3202404","EPHEMERIS_TYPE":"0","REV_AT_EPOCH":"3368","CENTER_NAME":"EARTH","TLE_LINE1":"1 48126U 21027AL  21308.86042705  .00002414  00000-0  18083-3 0  9993","REF_FRAME":"TEME","TIME_SYSTEM":"UTC","CLASSIFICATION_TYPE":"U","BSTAR":"0.00018083000000","RA_OF_ASC_NODE":"70.6825","COUNTRY_CODE":"US","MEAN_MOTION_DOT":"0.00002414","NORAD_CAT_ID":"48126","MEAN_ANOMALY":"275.1456","INCLINATION":"53.0530","PERIOD":"95.591","RCS_SIZE":"LARGE","MEAN_MOTION_DDOT":"0.0000000000000","ELEMENT_SET_NO":"999","OBJECT_NAME":"STARLINK-2467","TLE_LINE2":"2 48126  53.0530  70.6825 0001353  84.9687 275.1456 15.06411503 33687","SEMIMAJOR_AXIS":"6925.313","EPOCH":"2021-11-04T20:39:00.897120","ARG_OF_PERICENTER":"84.9687","PERIAPSIS":"546.241","SITE":"AFETR","LAUNCH_DATE":"2021-04-07","MEAN_MOTION":"15.06411503","APOAPSIS":"548.115"},{"OBJECT_TYPE":"PAYLOAD","GP_ID":"188909410","FILE":"3201361","OBJECT_ID":"2021-027AM","ECCENTRICITY":"0.00014570","DECAY_DATE":null,"MEAN_ELEMENT_THEORY":"SGP4","TIME_SYSTEM":"UTC","REF_FRAME":"TEME","CLASSIFICATION_TYPE":"U","BSTAR":"0.00012734000000","RA_OF_ASC_NODE":"92.2070","EPHEMERIS_TYPE":"0","REV_AT_EPOCH":"3294","CENTER_NAME":"EARTH","TLE_LINE1":"1 48127U 21027AM  21308.51948047  .00001616  00000-0  12734-3 0  9990","INCLINATION":"53.0559","PERIOD":"95.592","COUNTRY_CODE":"US","MEAN_MOTION_DOT":"0.00001616","NORAD_CAT_ID":"48127","MEAN_ANOMALY":"281.7920","LAUNCH_DATE":"2021-04-07","MEAN_MOTION":"15.06398453","APOAPSIS":"548.227","RCS_SIZE":"LARGE","OBJECT_NAME":"STARLINK-2468","MEAN_MOTION_DDOT":"0.0000000000000","ELEMENT_SET_NO":"999","SEMIMAJOR_AXIS":"6925.353","TLE_LINE2":"2 48127  53.0559  92.2070 0001457  78.3232 281.7920 15.06398453 32944","EPOCH":"2021-11-04T12:28:03.112608","ARG_OF_PERICENTER":"78.3232","PERIAPSIS":"546.209","SITE":"AFETR"},{"PERIAPSIS":"546.016","SITE":"AFETR","RCS_SIZE":"LARGE","MEAN_MOTION_DDOT":"0.0000000000000","ELEMENT_SET_NO":"999","OBJECT_NAME":"STARLINK-2469","TLE_LINE2":"2 48128  53.0540  21.4317 0001741  41.5480 318.5641 15.06397330 34344","SEMIMAJOR_AXIS":"6925.357","ARG_OF_PERICENTER":"41.5480","EPOCH":"2021-11-04T16:34:49.806336","APOAPSIS":"548.427","LAUNCH_DATE":"2021-04-07","MEAN_MOTION":"15.06397330","MEAN_MOTION_DOT":"0.00000254","NORAD_CAT_ID":"48128","MEAN_ANOMALY":"318.5641","COUNTRY_CODE":"US","PERIOD":"95.592","INCLINATION":"53.0540","TLE_LINE1":"1 48128U 21027AN  21308.69085424  .00000254  00000-0  35952-4 0  9996","EPHEMERIS_TYPE":"0","CENTER_NAME":"EARTH","REV_AT_EPOCH":"3434","CLASSIFICATION_TYPE":"U","BSTAR":"0.00003595200000","RA_OF_ASC_NODE":"21.4317","REF_FRAME":"TEME","TIME_SYSTEM":"UTC","OBJECT_ID":"2021-027AN","ECCENTRICITY":"0.00017410","DECAY_DATE":null,"MEAN_ELEMENT_THEORY":"SGP4","FILE":"3202404","OBJECT_TYPE":"PAYLOAD","GP_ID":"188953737"}];
